BEIDOU 3 (C01)          
1 36287U 10001A   20316.08879002 -.00000276  00000+0  00000+0 0  9998
2 36287   1.5795  35.6279 0004286 126.6125  60.9311  1.00268871 39678
BEIDOU 5 (C06)          
1 36828U 10036A   20315.96574153 -.00000097  00000+0  00000+0 0  9993
2 36828  54.1629 181.6215 0099656 233.9003 102.4748  1.00270264 37700
BEIDOU 6 (C04)          
1 37210U 10057A   20316.03374031 -.00000107  00000+0  00000+0 0  9996
2 37210   0.7770  42.9934 0007029 182.0641 357.7936  1.00270837 36790
BEIDOU 7 (C07)          
1 37256U 10068A   20315.59146630 -.00000206  00000+0  00000+0 0  9990
2 37256  51.2406 296.6024 0081548 215.5930 230.0221  1.00264837 36306
BEIDOU 8 (C08)          
1 37384U 11013A   20316.12607124 -.00000203  00000+0  00000+0 0  9990
2 37384  59.4751  60.1132 0052870 203.7541 310.3405  1.00264282 35183
BEIDOU 9 (C09)          
1 37763U 11038A   20315.88926497 -.00000043  00000+0  00000+0 0  9999
2 37763  54.4451 184.0288 0072198 223.5015  58.3266  1.00263433 34141
BEIDOU 10 (C10)         
1 37948U 11073A   20315.41438427 -.00000141  00000+0  00000+0 0  9992
2 37948  51.3364 296.2059 0070469 217.1688 140.7698  1.00262438 32621
BEIDOU 11 (C05)         
1 38091U 12008A   20316.04840968  .00000060  00000+0  00000+0 0  9997
2 38091   1.7863  70.3046 0003799 222.7163 193.8827  1.00275533 31872
BEIDOU 12 (C11)         
1 38250U 12018A   20315.47674148 -.00000074  00000+0  00000+0 0  9992
2 38250  56.7498  12.8468 0024547 243.0793 116.7269  1.86234112 57864
BEIDOU 13 (C12)         
1 38251U 12018B   20315.94709333 -.00000074  00000+0  00000+0 0  9990
2 38251  56.6749  12.1933 0015604 244.5348 115.3619  1.86232392 57872
BEIDOU 15 (C14)         
1 38775U 12050B   20315.65328320  .00000110  00000+0  00000+0 0  9998
2 38775  55.1143 131.3631 0012407 325.4145  34.5487  1.86232221 55230
BEIDOU 16 (C02)         
1 38953U 12059A   20316.03729832 -.00000170  00000+0  00000+0 0  9998
2 38953   1.4470  84.5867 0007729 251.6441 171.8900  1.00270256 29417
BEIDOU 17 (C31)         
1 40549U 15019A   20316.02612644 -.00000143  00000+0  00000+0 0  9992
2 40549  52.8382 319.5132 0039742 194.4589   0.0035  1.00254687 20284
BEIDOU 18 (C57)         
1 40748U 15037A   20315.54477209 -.00000074  00000+0  00000+0 0  9998
2 40748  55.9403  11.4250 0002374 311.0152  49.0219  1.86232949 36023
BEIDOU 19 (C58)         
1 40749U 15037B   20315.34027906 -.00000074  00000+0  00000+0 0  9992
2 40749  55.9437  11.4197 0005569 284.5164  75.4793  1.86231968 36049
BEIDOU 20 (C18)         
1 40938U 15053A   20315.86732877 -.00000144  00000+0  00000+0 0  9995
2 40938  52.4025 282.5601 0047359 192.5305 343.2734  1.00285377 18852
BEIDOU IGSO-6 (C13)     
1 41434U 16021A   20315.76299291 -.00000159  00000+0  00000+0 0  9996
2 41434  57.2476  58.9610 0042907 206.3297 155.0532  1.00270362 16996
BEIDOU-2 G7 (C03)       
1 41586U 16037A   20315.90744550 -.00000348  00000+0  00000+0 0  9990
2 41586   1.7922  67.9609 0007693 354.8386  64.9002  1.00265409 16292
BEIDOU-3 M1 (C19)       
1 43001U 17069A   20315.41973095  .00000110  00000+0  00000+0 0  9990
2 43001  55.2685 131.2933 0006928 290.4547  69.5146  1.86231611 20528
BEIDOU-3 M2 (C20)       
1 43002U 17069B   20315.89154283  .00000110  00000+0  00000+0 0  9993
2 43002  55.2688 131.3126 0006167 321.9740  38.0260  1.86231365 20521
BEIDOU-3 M3 (C27)       
1 43107U 18003A   20315.64425636 -.00000076  00000+0  00000+0 0  9996
2 43107  55.3780  12.6008 0003011  37.8578 322.2197  1.86232412 19280
BEIDOU-3 M4 (C28)       
1 43108U 18003B   20315.57678414 -.00000076  00000+0  00000+0 0  9993
2 43108  55.3720  12.5942 0004606 238.1645 121.8469  1.86232479 19281
BEIDOU-3 M5 (C21)       
1 43207U 18018A   20315.48735705  .00000110  00000+0  00000+0 0  9994
2 43207  55.2279 131.4250 0004861 359.1165   0.9267  1.86231509 18663
BEIDOU-3 M6 (C22)       
1 43208U 18018B   20315.55413475  .00000110  00000+0  00000+0 0  9990
2 43208  55.2274 131.4276 0005374 309.1232  50.8731  1.86231501 18669
BEIDOU-3 M7 (C29)       
1 43245U 18029A   20314.70441109 -.00000075  00000+0  00000+0 0  9995
2 43245  55.3197  10.4367 0001520 243.0052 117.0363  1.86232457 17800
BEIDOU-3 M8 (C30)       
1 43246U 18029B   20315.70968261 -.00000075  00000+0  00000+0 0  9990
2 43246  55.3163  10.4329 0003820 322.8162  37.2152  1.86232862 17804
BEIDOU IGSO-7 (C16)     
1 43539U 18057A   20315.97534453 -.00000090  00000+0  00000+0 0  9994
2 43539  55.0445 180.9277 0030490 212.9201 122.8098  1.00280245  8499
BEIDOU-3 M9 (C23)       
1 43581U 18062A   20315.93385247 -.00000021  00000+0  00000+0 0  9992
2 43581  54.4989 252.1026 0005117 284.2706  75.6691  1.86231625 15568
BEIDOU-3 M10 (C24)      
1 43582U 18062B   20315.79803542 -.00000021  00000+0  00000+0 0  9990
2 43582  54.4983 252.0968 0006124 341.5039  18.4708  1.86232107 15562
BEIDOU-3 M11 (C25)      
1 43602U 18067A   20315.73440537 -.00000020  00000+0  00000+0 0  9992
2 43602  54.5709 250.6634 0007268 350.3886   9.5963  1.86231399 15054
BEIDOU-3 M12 (C26)      
1 43603U 18067B   20315.86787628 -.00000021  00000+0  00000+0 0  9993
2 43603  54.5677 250.6268 0004753 337.7047  22.2731  1.86231326 15073
BEIDOU-3 M13 (C32)      
1 43622U 18072A   20315.28555754  .00000109  00000+0  00000+0 0  9995
2 43622  55.1917 131.0075 0003702 285.2355  74.7668  1.86231651 14574
BEIDOU-3 M14 (C33)      
1 43623U 18072B   20315.68796650  .00000110  00000+0  00000+0 0  9994
2 43623  55.1937 130.9852 0002809 337.2879  22.7428  1.86231672 14574
BEIDOU-3 M15 (C34)      
1 43647U 18078A   20315.30743438 -.00000075  00000+0  00000+0 0  9992
2 43647  55.2123  10.6239 0005889 336.3083  23.7219  1.86232712 14080
BEIDOU-3 M16 (C35)      
1 43648U 18078B   20315.98038036 -.00000075  00000+0  00000+0 0  9998
2 43648  55.2083  10.6088 0003605 341.0332  19.0114  1.86232204 14103
BEIDOU-3 G1 (C59)       
1 43683U 18085A   20316.14285297 -.00000275  00000+0  00000+0 0  9999
2 43683   1.4595 247.3826 0004895   3.7314 351.1229  1.00268831  7555
BEIDOU-3 M17 (C36)      
1 43706U 18093A   20315.59821394 -.00000020  00000+0  00000+0 0  9994
2 43706  54.5788 251.9567 0010690 273.9995  85.8762  1.86231647 13462
BEIDOU-3 M18 (C37)      
1 43707U 18093B   20315.46303988 -.00000019  00000+0  00000+0 0  9993
2 43707  54.5796 251.9521 0009722 295.4734  64.4243  1.86231923 13459
BEIDOU-3 IGSO-1 (C38)   
1 44204U 19023A   20315.72851272 -.00000209  00000+0  00000+0 0  9994
2 44204  55.7061  59.3112 0019552 184.8725 178.1184  1.00249446  5856
BEIDOU-2 G8             
1 44231U 19027A   20316.14285297 -.00000243  00000+0  00000+0 0  9991
2 44231   0.6612 303.6761 0008133 273.4868  29.6194  1.00270913  5582
BEIDOU-3 IGSO-2 (C39)   
1 44337U 19035A   20314.57633701 -.00000075  00000+0  00000+0 0  9992
2 44337  55.0712 176.9857 0016239 185.0703 359.1216  1.00295960  5173
BEIDOU-3 M23 (C45)      
1 44542U 19061A   20315.53212969 -.00000019  00000+0  00000+0 0  9993
2 44542  54.8030 251.9860 0009547 322.8609  37.0710  1.86231441  7710
BEIDOU-3 M24 (C46)      
1 44543U 19061B   20314.85845832 -.00000014  00000+0  00000+0 0  9994
2 44543  54.8016 251.9798 0006923 313.0974 225.7414  1.86231743  7708
BEIDOU-3 IGSO-3         
1 44709U 19073A   20315.40331337 -.00000149  00000+0  00000+0 0  9992
2 44709  58.1814 302.4056 0021323 197.9739 161.9356  1.00288155  3665
BEIDOU-3 M21            
1 44793U 19078A   20313.22719473 -.00000076  00000+0  00000+0 0  9998
2 44793  55.0607  10.7880 0005509 343.9926  16.0467  1.86232385  6548
BEIDOU-3 M22            
1 44794U 19078B   20316.04534096 -.00000076  00000+0  00000+0 0  9998
2 44794  55.0349  10.6947 0003753 331.3124  28.7248  1.86232807  6574
BEIDOU-3 M19            
1 44864U 19090A   20316.07771536  .00000109  00000+0  00000+0 0  9991
2 44864  55.1273 131.2235 0013285 260.2377 316.1719  1.86231686  6166
BEIDOU-3 M20            
1 44865U 19090B   20315.64229131  .00000110  00000+0  00000+0 0  9995
2 44865  55.1294 131.2687 0011981 279.0201  95.3906  1.86231676  6147
BEIDOU-3 G2             
1 45344U 20017A   20314.57180075 -.00000139  00000+0  00000+0 0  9995
2 45344   2.7411 331.0784 0001553 249.7947 114.1936  1.00270098  2755
BEIDOU-3 G3             
1 45807U 20040A   20316.04285380 -.00000353  00000+0  00000+0 0  9992
2 45807   2.7899 298.5765 0007848 358.2766 239.6821  1.00264672  1579
